FLOCK 4G-6              
1 62660U 25009BD  26068.71061311  .00012261  00000+0  45910-3 0  9991
2 62660  97.3980 150.7943 0002380 348.2637  11.8546 15.27432125121307
STARLINK-36174          
1 67166U 25303D   26068.07979290  .00039595  00000+0  14398-2 0  9991
2 67166  43.0029 314.0153 0002509 253.7546 106.3030 15.27597520 12640
